Name,Lat,Lng,Address
Costco Wholesale,41.26532359999999,-81.5074005,"6720 Bass Pro Dr, Hudson, OH 44236, United States"
Costco Wholesale,41.5239553,-81.4466104,"1409 Golden Gate Blvd, Cleveland, OH 44124, United States"
Costco Wholesale,41.3169081,-81.8159034,"16690 Royalton Rd, Strongsville, OH 44136, United States"
Costco Wholesale,41.4605331,-82.0110016,"35804 Detroit Rd, Avon, OH 44011, United States"
Costco Wholesale,40.1099981,-83.1892239,"7300 OH-161, Plain City, OH 43064, United States"
Costco Wholesale,40.15035719999999,-82.9770176,"1500 Gemini Pl, Columbus, OH 43240, United States"
Costco Wholesale,40.0538236,-82.90543480000001,"3888 Stelzer Rd, Columbus, OH 43219, United States"
Costco Wholesale,41.5342505,-83.63283779999999,"26400 N Dixie Hwy, Perrysburg, OH 43551, United States"
Costco Wholesale,41.6757774,-83.6259078,"3405 Central Ave, Toledo, OH 43606, United States"
Costco Wholesale,39.6630284,-84.1057103,"5300 Cornerstone N Blvd, Centerville, OH 45440, United States"
Costco Wholesale,39.2957767,-84.3031184,"9691 Waterstone Blvd, Cincinnati, OH 45249, United States"
Costco Wholesale,39.2888031,-84.45103449999999,"1100 E Kemper Rd, Springdale, OH 45246, United States"
Costco Pharmacy,41.4603129,-82.01141659999999,"35804 Detroit Rd, Avon, OH 44011, United States"
Costco Pharmacy,40.11020910000001,-83.1894488,"7300 OH-161, Plain City, OH 43064, United States"
Costco Pharmacy,41.3169467,-81.8158933,"16690 Royalton Rd, Strongsville, OH 44136, United States"
Costco Gasoline,41.2636635,-81.50737970000002,"6720 Bass Pro Dr, Hudson, OH 44236, United States"
Costco Pharmacy,40.1505437,-82.9770645,"1500 Gemini Pl, Columbus, OH 43240, United States"
Costco Pharmacy,41.52426730000001,-81.44649319999999,"1409 Golden Gate Blvd, Cleveland, OH 44124, United States"
Costco Gasoline,41.3165248,-81.8147001,"16690 Royalton Rd, Strongsville, OH 44136, United States"
Costco Pharmacy,40.05341019999999,-82.90463439999999,"3888 Stelzer Rd, Columbus, OH 43219, United States"
Sam's Club,41.1181572,-81.46922119999999,"1189 Buchholzer Blvd, Cuyahoga Falls, OH 44221, United States"
Sam's Club,41.1331752,-81.6331853,"3750 W Market St Unit J, Fairlawn, OH 44333, United States"
Sam's Club,40.8781738,-81.43716429999999,"4790 Portage St NW, Canton, OH 44720, United States"
Sam's Club,41.3664126,-81.5123818,"23300 Broadway Ave, Oakwood, OH 44146, United States"
Sam's Club,41.42028,-81.757481,"10250 Brookpark Rd, Cleveland, OH 44130, United States"
Sam's Club,41.4218436,-82.0815143,"5225 Cobblestone Rd, Sheffield, OH 44035, United States"
Sam's Club,41.7172108,-81.29339519999999,"5600 Emerald Ct, Mentor, OH 44060, United States"
Sam's Club,41.03433,-80.6336,"6361 South Ave, Youngstown, OH 44512, United States"
Sam's Club,41.22619539999999,-80.7448357,"1040 Niles Cortland Rd SE, Warren, OH 44484, United States"
Sam's Club Tire & Battery,41.117609,-81.469556,"1189 Buchholzer Blvd, Cuyahoga Falls, OH 44221, United States"
Sam's Club,40.7819194,-82.5882694,"1070 N Lexington-Springmill Rd, Ontario, OH 44906, United States"
Sam's Club,41.4007783,-82.6665847,"614 Crossings Rd, Sandusky, OH 44870, United States"
Sam's Club,40.0750529,-80.87882189999999,"50555 Valley Plaza Dr, St Clairsville, OH 43950, United States"
Sam's Club,39.9883577,-82.0315124,"3724 Northpointe Dr, Zanesville, OH 43701, United States"
Sam's Club,39.9380793,-82.78282829999999,"2675 Taylor Rd Ext, Reynoldsburg, OH 43068, United States"
Sam's Club Tire & Battery,41.1328679,-81.6335034,"3750 W Market St, Fairlawn, OH 44333, United States"
Sam's Club,40.0865008,-83.0885127,"5870 Sawmill Rd, Dublin, OH 43017, United States"
Sam's Club,39.9866329,-83.1532836,"1755 Hilliard Rome Rd, Hilliard, OH 43026, United States"
Sam's Club,40.0605003,-82.91119259999999,"3950 Morse Rd, Columbus, OH 43219, United States"
Sam's Club Pharmacy,41.1176342,-81.4695654,"1189 Buchholzer Blvd, Cuyahoga Falls, OH 44221, United States"
BJ's Wholesale,41.115934,-81.4825905,"1677 Home Ave, Akron, OH 44310, United States"
BJ's Wholesale,40.8816904,-81.43993619999999,"6924 Frank Ave NW, North Canton, OH 44720, United States"
BJ's Wholesale,41.4419517,-81.4969558,"4365 Richmond Rd, Warrensville Heights, OH 44122, United States"
BJ's Wholesale,41.376131,-81.786051,"6944 W 130th St, Middleburg Heights, OH 44130, United States"
BJ's,41.1159635,-81.4839125,"1677 Home Ave, Akron, OH 44310, United States"
BJ's Wholesale,41.63104209999999,-81.4260547,"36595 Euclid Ave, Willoughby, OH 44094, United States"
BJ's Wholesale,41.4632057,-82.0500783,"38292 Colorado Ave, Avon, OH 44011, United States"
